ZHUHAI-1 01 (CAS-4A)    
1 42761U 17034D   23347.48420045  .00006103  00000+0  27471-3 0  9994
2 42761  43.0115 194.5659 0012178 199.1799 160.8593 15.21690268358917
CARTOSAT-2E             
1 42767U 17036C   23347.41458008  .00003699  00000+0  17848-3 0  9999
2 42767  97.4667  44.3064 0005986 287.5321  72.5259 15.19291641358953
FORMOSAT-5              
1 42920U 17049A   23347.16148914  .00000216  00000+0  66028-4 0  9995
2 42920  98.3095  62.4571 0011184  28.8928 331.2884 14.50773902333703
SENTINEL-5P             
1 42969U 17064A   23347.40210019  .00000049  00000+0  43985-4 0  9999
2 42969  98.7231 284.4210 0000863 102.8359 257.2914 14.19575294319491
SKYSAT-C11              
1 42987U 17068A   23346.91769739  .00012912  00000+0  41305-3 0  9991
2 42987  97.3403 108.6943 0003390 242.1007 117.9892 15.32543319341900
SKYSAT-C10              
1 42988U 17068B   23347.33225938  .00008061  00000+0  27524-3 0  9994
2 42988  97.3476 109.9357 0004984  36.8080 323.3503 15.30565299342006
SKYSAT-C9               
1 42989U 17068C   23346.90146833  .00010577  00000+0  35362-3 0  9997
2 42989  97.3410 107.7786 0021367 264.1759  95.7047 15.30959674342108
SKYSAT-C8               
1 42990U 17068D   23347.35707584  .00008232  00000+0  29085-3 0  9995
2 42990  97.3501 109.7939 0003365 182.6019 177.5204 15.29451129341983
SKYSAT-C7               
1 42991U 17068E   23347.30926410  .00008723  00000+0  29314-3 0  9992
2 42991  97.3499 110.0350 0003970  91.6132 268.5564 15.31061470341999
SKYSAT-C6               
1 42992U 17068F   23347.07404441  .00010191  00000+0  34348-3 0  9997
2 42992  97.3524 110.7363 0001762  96.9327 263.2115 15.30925174341994
CARTOSAT-2F             
1 43111U 18004A   23347.44823683  .00004211  00000+0  20320-3 0  9997
2 43111  97.4600  44.6207 0001997 308.3386  51.7669 15.19219425328149
NUSAT-4 (ADA)           
1 43195U 18015D   23347.43494606  .00284563  31654-4  97828-3 0  9990
2 43195  97.5715 156.5840 0005108 263.1630  96.9061 15.89591356327265
NUSAT-5 (MARYAM)        
1 43204U 18015K   23347.46593743  .00540073  13154-3  10248-2 0  9991
2 43204  97.5712 158.3904 0005728 279.9152  80.1480 16.00704457326975
GAOFEN-1 02             
1 43259U 18031A   23347.48061664  .00000782  00000+0  11926-3 0  9998
2 43259  97.8455  55.5609 0005006  60.1084 300.0622 14.76561798307426
GAOFEN-1 03             
1 43260U 18031B   23347.45896268  .00000783  00000+0  11939-3 0  9998
2 43260  97.8450  55.4734 0006068 125.6973 234.4802 14.76539230307419
GAOFEN-1 04             
1 43262U 18031D   23347.43441343  .00000777  00000+0  11845-3 0  9997
2 43262  97.8458  55.5364 0005149  89.5507 270.6293 14.76551287307400
SENTINEL-3B             
1 43437U 18039A   23346.89062691  .00000149  00000+0  79712-4 0  9994
2 43437  98.6237  51.4491 0001397  93.3010 266.8331 14.26734089293320
GAOFEN-5 01             
1 43461U 18043A   23346.83907359  .00000437  00000+0  10363-3 0  9995
2 43461  98.3329 291.3957 0003004  62.5247 297.6257 14.58757598297851
GAOFEN-6                
1 43484U 18048A   23347.47231959  .00000707  00000+0  10860-3 0  9994
2 43484  97.8847  61.5240 0008667 253.7368 106.2889 14.76522709298115
GAOFEN-11 01            
1 43585U 18063A   23347.43386805  .00006344  00000+0  24710-3 0  9992
2 43585  97.2594  53.4359 0010143  58.1758 302.0467 15.26273284299232
ICESAT-2                
1 43613U 18070A   23347.45103545  .00010338  00000+0  37533-3 0  9997
2 43613  91.9978  44.4830 0007385  72.0783 288.1271 15.28253594292450
HYSIS                   
1 43719U 18096A   23347.42673603  .00000996  00000+0  14270-3 0  9998
2 43719  97.8925  50.2586 0001661 193.2779 166.8389 14.78726384271948
KAZSTSAT                
1 43783U 18099AB  23346.70219093  .00001487  00000+0  13880-3 0  9993
2 43783  97.5570  39.6358 0006115 246.6493 113.4085 14.95641703273959
SAUDISAT 5A             
1 43831U 18102A   23347.42276666  .00002786  00000+0  15846-3 0  9998
2 43831  97.4351  52.6172 0014401 104.5080 255.7750 15.13594429276325
SAUDISAT 5B             
1 43833U 18102C   23347.46954686  .00003302  00000+0  18423-3 0  9998
2 43833  97.4391  54.2066 0015169 108.7104 251.5775 15.14150633276402
GAOFEN-10R              
1 44622U 19066A   23347.44891500  .00001302  00000+0  16951-3 0  9990
2 44622  97.9470 285.2917 0002945  34.7721 325.3684 14.82319169226548
CARTOSAT-3              
1 44804U 19081A   23347.44501454  .00002115  00000+0  10351-3 0  9996
2 44804  97.4769  40.4336 0012288 110.3710 249.8846 15.19231853224230
GAOFEN-12 01            
1 44819U 19082A   23347.45634271  .00000400  00000+0  58306-4 0  9996
2 44819  97.8324   0.9300 0001320  96.5328 263.6035 14.80959375218436
CSG-1                   
1 44873U 19092A   23347.46098058  .00000482  00000+0  67118-4 0  9996
2 44873  97.8852 168.3535 0001364  85.4114 274.7255 14.82159371215680
NUSAT-7 (SOPHIE)        
1 45017U 20003B   23347.41608552  .00220467  00000+0  86232-3 0  9996
2 45017  97.1411  51.6253 0006070 125.5029 234.6810 15.86425219219460
NUSAT-6 (HYPATIA)       
1 46272U 20061A   23346.91799219  .00027376  00000+0  59383-3 0  9990
2 46272  97.2603  54.7096 0003063 298.2884  61.8055 15.44364645182439
NEMO-HD                 
1 46277U 20061F   23347.40227106  .00004025  00000+0  17340-3 0  9994
2 46277  97.3258  49.6219 0003021  82.7086 277.4494 15.23138124181489
SENTINEL-6              
1 46984U 20086A   23346.92746732 -.00000028  00000+0  14143-3 0  9991
2 46984  66.0409 240.2091 0007714 269.6632  90.3499 12.80928786142843
GAOFEN-12 02            
1 48079U 21026A   23347.50306204  .00000432  00000+0  62674-4 0  9995
2 48079  97.9372 335.8721 0001745  82.2813 277.8597 14.80905844146118
PLEIADES NEO 3          
1 48268U 21034A   23347.43237137  .00001075  00000+0  14320-3 0  9992
2 48268  97.8933  59.3529 0001086  91.8894 268.2443 14.81672335141900
NUSAT-19 (ROSALIND)     
1 48905U 21059AC  23347.43594578  .00017226  00000+0  48032-3 0  9994
2 48905  97.5722 126.8251 0006306 323.8143  36.2673 15.36815753137028
NUSAT-22 (SOFYA)        
1 48919U 21059AS  23347.35342986  .02429888  24349-5  10696-2 0  9999
2 48919  97.3913 136.2132 0007506 286.9972  73.0496 16.22388645138718
PLEIADES NEO 4          
1 49070U 21073E   23347.39859357  .00001120  00000+0  14890-3 0  9999
2 49070  97.8948  59.3183 0001059  92.7287 267.4047 14.81672951125615
LANDSAT 9               
1 49260U 21088A   23347.18429145  .00000369  00000+0  92055-4 0  9995
2 49260  98.2118  54.7564 0001215  88.4298 271.7040 14.57100360117457
CSG-2                   
1 51444U 22008A   23347.49474956  .00000372  00000+0  53263-4 0  9991
2 51444  97.8851 168.3854 0001314  86.5573 273.5791 14.82155198100803
INS-2TD                 
1 51658U 22013C   23347.00065629  .00019347  00000+0  66241-3 0  9995
2 51658  97.5372   0.8442 0010019  95.2786 264.9597 15.30222080101250
GAOFEN-12 03            
1 52912U 22069A   23347.41955261  .00001333  00000+0  17838-3 0  9999
2 52912  97.9308 235.6697 0001544  62.8412 297.2957 14.81095409 78975
SWOT                    
1 54754U 22173A   23347.44469616  .00000045  00000+0  32156-4 0  9998
2 54754  77.6092 192.8155 0000302  29.0040 331.1128 14.00173499 50854
GAOFEN-12 04            
1 57654U 23123A   23347.45771504  .00001181  00000+0  15916-3 0  9995
2 57654  97.9102 262.3681 0002587 100.9428 259.2075 14.80997029 16984
